start=new Date('2022-04-17T00:00:00.000Z').valueOf();
sats=[{"TLE_LINE1":"1 51812U 22017AW  22106.91668981  .00171316  00000-0  12085-2 0  9995","LAUNCH_DATE":"2022-02-25","ELEMENT_SET_NO":"999","MEAN_ANOMALY":"70.6572","MEAN_MOTION_DDOT":"0.0000000000000","CENTER_NAME":"EARTH","REF_FRAME":"TEME","RCS_SIZE":"LARGE","ARG_OF_PERICENTER":"57.4106","OBJECT_NAME":"STARLINK-3610","DECAY_DATE":null,"OBJECT_ID":"2022-017AW","EPHEMERIS_TYPE":"0","MEAN_MOTION_DOT":"0.00171316","NORAD_CAT_ID":"51812","MEAN_MOTION":"15.73040951","COUNTRY_CODE":"US","SEMIMAJOR_AXIS":"6728.349","EPOCH":"2022-04-16T22:00:01.999584","REV_AT_EPOCH":"370","MEAN_ELEMENT_THEORY":"SGP4","RA_OF_ASC_NODE":"254.7701","CLASSIFICATION_TYPE":"U","INCLINATION":"53.2130","GP_ID":"201423637","TIME_SYSTEM":"UTC","PERIAPSIS":"349.344","TLE_LINE2":"2 51812  53.2130 254.7701 0001293  57.4106  70.6572 15.73040951  3709","OBJECT_TYPE":"PAYLOAD","ECCENTRICITY":"0.00012930","FILE":"3404767","SITE":"AFWTR","BSTAR":"0.00120850000000","PERIOD":"91.542","APOAPSIS":"351.084"},{"TLE_LINE1":"1 51813U 22017AX  22106.91668981  .00157910  00000-0  11157-2 0  9999","MEAN_ANOMALY":"76.2541","LAUNCH_DATE":"2022-02-25","ELEMENT_SET_NO":"999","CENTER_NAME":"EARTH","MEAN_MOTION_DDOT":"0.0000000000000","REF_FRAME":"TEME","RCS_SIZE":"LARGE","OBJECT_NAME":"STARLINK-3552","ARG_OF_PERICENTER":"50.5469","DECAY_DATE":null,"OBJECT_ID":"2022-017AX","EPHEMERIS_TYPE":"0","MEAN_MOTION_DOT":"0.00157910","NORAD_CAT_ID":"51813","MEAN_MOTION":"15.73048457","COUNTRY_CODE":"US","SEMIMAJOR_AXIS":"6728.327","EPOCH":"2022-04-16T22:00:01.999584","REV_AT_EPOCH":"369","MEAN_ELEMENT_THEORY":"SGP4","INCLINATION":"53.2138","RA_OF_ASC_NODE":"254.7748","CLASSIFICATION_TYPE":"U","GP_ID":"201423373","TIME_SYSTEM":"UTC","PERIAPSIS":"349.273","OBJECT_TYPE":"PAYLOAD","TLE_LINE2":"2 51813  53.2138 254.7748 0001366  50.5469  76.2541 15.73048457  3691","ECCENTRICITY":"0.00013660","FILE":"3404767","SITE":"AFWTR","PERIOD":"91.542","APOAPSIS":"351.111","BSTAR":"0.00111570000000"},{"CENTER_NAME":"EARTH","MEAN_MOTION_DDOT":"0.0000000000000","REF_FRAME":"TEME","RCS_SIZE":"LARGE","OBJECT_NAME":"STARLINK-3599","ARG_OF_PERICENTER":"45.2320","TLE_LINE1":"1 51814U 22017AY  22106.91668981  .00096657  00000-0  68941-3 0  9994","MEAN_ANOMALY":"84.1397","ELEMENT_SET_NO":"999","LAUNCH_DATE":"2022-02-25","MEAN_MOTION_DOT":"0.00096657","NORAD_CAT_ID":"51814","COUNTRY_CODE":"US","MEAN_MOTION":"15.73056526","DECAY_DATE":null,"OBJECT_ID":"2022-017AY","EPHEMERIS_TYPE":"0","CLASSIFICATION_TYPE":"U","RA_OF_ASC_NODE":"254.7660","INCLINATION":"53.2125","GP_ID":"201423551","SEMIMAJOR_AXIS":"6728.304","EPOCH":"2022-04-16T22:00:01.999584","REV_AT_EPOCH":"370","MEAN_ELEMENT_THEORY":"SGP4","FILE":"3404767","SITE":"AFWTR","APOAPSIS":"351.094","PERIOD":"91.542","BSTAR":"0.00068941000000","TIME_SYSTEM":"UTC","PERIAPSIS":"349.245","OBJECT_TYPE":"PAYLOAD","TLE_LINE2":"2 51814  53.2125 254.7660 0001374  45.2320  84.1397 15.73056526  3702","ECCENTRICITY":"0.00013740"},{"OBJECT_ID":"2022-017AZ","DECAY_DATE":null,"EPHEMERIS_TYPE":"0","NORAD_CAT_ID":"51815","MEAN_MOTION_DOT":"0.00162768","COUNTRY_CODE":"US","MEAN_MOTION":"15.73059036","TLE_LINE1":"1 51815U 22017AZ  22106.91668981  .00162768  00000-0  11487-2 0  9994","ELEMENT_SET_NO":"999","LAUNCH_DATE":"2022-02-25","MEAN_ANOMALY":"94.5050","REF_FRAME":"TEME","MEAN_MOTION_DDOT":"0.0000000000000","CENTER_NAME":"EARTH","ARG_OF_PERICENTER":"34.2196","OBJECT_NAME":"STARLINK-3604","RCS_SIZE":"LARGE","TLE_LINE2":"2 51815  53.2136 254.7699 0001618  34.2196  94.5050 15.73059036  3707","OBJECT_TYPE":"PAYLOAD","TIME_SYSTEM":"UTC","PERIAPSIS":"349.073","ECCENTRICITY":"0.00016180","FILE":"3404767","BSTAR":"0.00114870000000","APOAPSIS":"351.251","PERIOD":"91.541","SITE":"AFWTR","REV_AT_EPOCH":"370","EPOCH":"2022-04-16T22:00:01.999584","SEMIMAJOR_AXIS":"6728.297","MEAN_ELEMENT_THEORY":"SGP4","GP_ID":"201423460","INCLINATION":"53.2136","RA_OF_ASC_NODE":"254.7699","CLASSIFICATION_TYPE":"U"},{"NORAD_CAT_ID":"51816","MEAN_MOTION_DOT":"0.00111834","COUNTRY_CODE":"US","MEAN_MOTION":"15.73059317","OBJECT_ID":"2022-017BA","DECAY_DATE":null,"EPHEMERIS_TYPE":"0","REF_FRAME":"TEME","MEAN_MOTION_DDOT":"0.0000000000000","CENTER_NAME":"EARTH","ARG_OF_PERICENTER":"41.5201","OBJECT_NAME":"STARLINK-3603","RCS_SIZE":"LARGE","TLE_LINE1":"1 51816U 22017BA  22106.91668981  .00111834  00000-0  79543-3 0  9991","ELEMENT_SET_NO":"999","LAUNCH_DATE":"2022-02-25","MEAN_ANOMALY":"88.4464","FILE":"3404767","BSTAR":"0.00079543000000","APOAPSIS":"351.136","PERIOD":"91.541","SITE":"AFWTR","TLE_LINE2":"2 51816  53.2143 254.7707 0001449  41.5201  88.4464 15.73059317  3709","OBJECT_TYPE":"PAYLOAD","TIME_SYSTEM":"UTC","PERIAPSIS":"349.186","ECCENTRICITY":"0.00014490","GP_ID":"201423282","CLASSIFICATION_TYPE":"U","INCLINATION":"53.2143","RA_OF_ASC_NODE":"254.7707","REV_AT_EPOCH":"370","EPOCH":"2022-04-16T22:00:01.999584","SEMIMAJOR_AXIS":"6728.296","MEAN_ELEMENT_THEORY":"SGP4"},{"DECAY_DATE":null,"OBJECT_ID":"2022-017BB","EPHEMERIS_TYPE":"0","MEAN_MOTION_DOT":"-0.00032602","NORAD_CAT_ID":"51817","MEAN_MOTION":"15.79249944","COUNTRY_CODE":"US","TLE_LINE1":"1 51817U 22017BB  22106.90946108 -.00032602  00000-0 -17435-3 0  9990","MEAN_ANOMALY":"82.7814","ELEMENT_SET_NO":"999","LAUNCH_DATE":"2022-02-25","CENTER_NAME":"EARTH","MEAN_MOTION_DDOT":"0.0000000000000","REF_FRAME":"TEME","RCS_SIZE":"LARGE","OBJECT_NAME":"STARLINK-3596","ARG_OF_PERICENTER":"277.2261","PERIAPSIS":"326.971","TIME_SYSTEM":"UTC","OBJECT_TYPE":"PAYLOAD","TLE_LINE2":"2 51817  53.2181 251.3184 0008339 277.2261  82.7814 15.79249944  9180","ECCENTRICITY":"0.00083390","FILE":"3404767","SITE":"AFWTR","PERIOD":"91.183","APOAPSIS":"338.163","BSTAR":"-0.00017435000000","SEMIMAJOR_AXIS":"6710.702","REV_AT_EPOCH":"918","EPOCH":"2022-04-16T21:49:37.437312","MEAN_ELEMENT_THEORY":"SGP4","CLASSIFICATION_TYPE":"U","INCLINATION":"53.2181","RA_OF_ASC_NODE":"251.3184","GP_ID":"201423728"},{"MEAN_MOTION":"15.36558399","COUNTRY_CODE":"US","MEAN_MOTION_DOT":"-0.00717464","NORAD_CAT_ID":"51852","EPHEMERIS_TYPE":"0","DECAY_DATE":null,"OBJECT_ID":"2022-022A","RCS_SIZE":"LARGE","OBJECT_NAME":"STARLINK-3542","ARG_OF_PERICENTER":"42.4014","CENTER_NAME":"EARTH","MEAN_MOTION_DDOT":"0.0000000000000","REF_FRAME":"TEME","MEAN_ANOMALY":"313.0729","LAUNCH_DATE":"2022-03-03","ELEMENT_SET_NO":"999","TLE_LINE1":"1 51852U 22022A   22106.91668981 -.00717464  00000-0 -21451-1 0  9993","SITE":"AFETR","APOAPSIS":"457.367","PERIOD":"93.716","BSTAR":"-0.02145100000000","FILE":"3404767","ECCENTRICITY":"0.00015650","TIME_SYSTEM":"UTC","PERIAPSIS":"455.228","OBJECT_TYPE":"PAYLOAD","TLE_LINE2":"2 51852  53.2174 288.0700 0001565  42.4014 313.0729 15.36558399  3677","RA_OF_ASC_NODE":"288.0700","CLASSIFICATION_TYPE":"U","INCLINATION":"53.2174","GP_ID":"201423464","MEAN_ELEMENT_THEORY":"SGP4","SEMIMAJOR_AXIS":"6834.433","EPOCH":"2022-04-16T22:00:01.999584","REV_AT_EPOCH":"367"},{"MEAN_ELEMENT_THEORY":"SGP4","EPOCH":"2022-04-16T22:00:01.999584","REV_AT_EPOCH":"367","SEMIMAJOR_AXIS":"6834.812","GP_ID":"201423286","CLASSIFICATION_TYPE":"U","INCLINATION":"53.2174","RA_OF_ASC_NODE":"288.0701","ECCENTRICITY":"0.00014250","OBJECT_TYPE":"PAYLOAD","TLE_LINE2":"2 51853  53.2174 288.0701 0001425  50.1630 293.6299 15.36430492  3672","TIME_SYSTEM":"UTC","PERIAPSIS":"455.703","PERIOD":"93.724","APOAPSIS":"457.651","BSTAR":"-0.02153200000000","SITE":"AFETR","FILE":"3404767","MEAN_ANOMALY":"293.6299","LAUNCH_DATE":"2022-03-03","ELEMENT_SET_NO":"999","TLE_LINE1":"1 51853U 22022B   22106.91668981 -.00717194  00000-0 -21532-1 0  9994","OBJECT_NAME":"STARLINK-3539","ARG_OF_PERICENTER":"50.1630","RCS_SIZE":"LARGE","REF_FRAME":"TEME","CENTER_NAME":"EARTH","MEAN_MOTION_DDOT":"0.0000000000000","EPHEMERIS_TYPE":"0","OBJECT_ID":"2022-022B","DECAY_DATE":null,"MEAN_MOTION":"15.36430492","COUNTRY_CODE":"US","NORAD_CAT_ID":"51853","MEAN_MOTION_DOT":"-0.00717194"},{"ELEMENT_SET_NO":"999","LAUNCH_DATE":"2022-03-03","MEAN_ANOMALY":"309.9046","TLE_LINE1":"1 51854U 22022C   22106.91668981 -.00717230  00000-0 -21356-1 0  9990","RCS_SIZE":"LARGE","ARG_OF_PERICENTER":"57.2128","OBJECT_NAME":"STARLINK-3541","MEAN_MOTION_DDOT":"0.0000000000000","CENTER_NAME":"EARTH","REF_FRAME":"TEME","EPHEMERIS_TYPE":"0","DECAY_DATE":null,"OBJECT_ID":"2022-022C","COUNTRY_CODE":"US","MEAN_MOTION":"15.36686062","MEAN_MOTION_DOT":"-0.00717230","NORAD_CAT_ID":"51854","MEAN_ELEMENT_THEORY":"SGP4","SEMIMAJOR_AXIS":"6834.054","REV_AT_EPOCH":"367","EPOCH":"2022-04-16T22:00:01.999584","RA_OF_ASC_NODE":"288.0701","INCLINATION":"53.2174","CLASSIFICATION_TYPE":"U","GP_ID":"201423732","ECCENTRICITY":"0.00012920","TIME_SYSTEM":"UTC","PERIAPSIS":"455.036","TLE_LINE2":"2 51854  53.2174 288.0701 0001292  57.2128 309.9046 15.36686062  3672","OBJECT_TYPE":"PAYLOAD","SITE":"AFETR","BSTAR":"-0.02135600000000","APOAPSIS":"456.802","PERIOD":"93.708","FILE":"3404767"},{"GP_ID":"201423910","RA_OF_ASC_NODE":"288.0702","INCLINATION":"53.2174","CLASSIFICATION_TYPE":"U","REV_AT_EPOCH":"367","EPOCH":"2022-04-16T22:00:01.999584","SEMIMAJOR_AXIS":"6833.297","MEAN_ELEMENT_THEORY":"SGP4","FILE":"3404767","BSTAR":"-0.02117600000000","PERIOD":"93.693","APOAPSIS":"456.101","SITE":"AFETR","TLE_LINE2":"2 51855  53.2174 288.0702 0001374  50.3949 339.8933 15.36941532  3673","OBJECT_TYPE":"PAYLOAD","TIME_SYSTEM":"UTC","PERIAPSIS":"454.223","ECCENTRICITY":"0.00013740","REF_FRAME":"TEME","MEAN_MOTION_DDOT":"0.0000000000000","CENTER_NAME":"EARTH","ARG_OF_PERICENTER":"50.3949","OBJECT_NAME":"STARLINK-3545","RCS_SIZE":"LARGE","TLE_LINE1":"1 51855U 22022D   22106.91668981 -.00717132  00000-0 -21176-1 0  9992","ELEMENT_SET_NO":"999","LAUNCH_DATE":"2022-03-03","MEAN_ANOMALY":"339.8933","NORAD_CAT_ID":"51855","MEAN_MOTION_DOT":"-0.00717132","COUNTRY_CODE":"US","MEAN_MOTION":"15.36941532","OBJECT_ID":"2022-022D","DECAY_DATE":null,"EPHEMERIS_TYPE":"0"}];
